CSTP-1.1
1 57202U 23091AN  26137.17983831  .00003851  00000-0  18825-3 0  9994
2 57202  97.5133 196.1662 0008873 207.9661 152.1097 15.18803377159254
CSTP-1.2
1 57186U 23091W   26137.14689531  .00006870  00000-0  25046-3 0  9999
2 57186  97.5165 203.1129 0018176 198.0459 162.0138 15.28346772159718
MULE-4T
1 67286U 25313AQ  26137.14855785  .00006347  00000-0  26674-3 0  9993
2 67286  97.3944 212.5089 0011423 104.4733 255.7772 15.23717056 21248
SCORPION (RS89S)
1 67293U 25313AX  26137.13043838  .00003041  00000-0  13385-3 0  9991
2 67293  97.3946 212.3810 0012689  97.2898 262.9781 15.22548256 21236
GALAPAGOS-UTE-SWSU
1 67279U 25313AH  26137.18759057  .00005010  00000-0  21930-3 0  9990
2 67279  97.3934 212.2945 0015907 111.7679 248.5252 15.22377055 21230
SAKHACUBE-CHOLBON (RS18S)
1 67290U 25313AU  26137.18101771  .00006874  00000-0  28395-3 0  9998
2 67290  97.3944 212.6164 0010996 105.3537 254.8916 15.24273125 21250
LUCA-1 (RS90S)
1 67287U 25313AR  26137.13220641  .00007077  00000-0  29472-3 0  9990
2 67287  97.3944 212.5304 0011313 105.9324 254.3160 15.23982476 21245
QMR-KWT-2 (RS95S)
1 67291U 25313AV  26136.93265433  .00011535  00000-0  45848-3 0  9999
2 67291  97.3946 212.4880 0010628 105.8883 254.3527 15.25409500 21226
LOBACHEVSKY (RS83S)
1 67284U 25313AN  26137.14654591  .00003979  00000-0  17415-3 0  9994
2 67284  97.3931 212.3279 0012372 107.6161 252.6427 15.22550937 21239
NASBSAT-1
1 67289U 25313AT  26137.13877565  .00010352  00000-0  41449-3 0  9993
2 67289  97.3943 212.6731 0010937 106.1345 254.1097 15.25189057 21252
NASBSAT-2
1 67285U 25313AP  26137.16695948  .00004989  00000-0  21296-3 0  9992
2 67285  97.3929 212.4412 0011967 109.2422 251.0111 15.23285117 21244
HORS-5
1 67283U 25313AM  26137.15760541  .00005412  00000-0  22939-3 0  9998
2 67283  97.3944 212.4916 0012076 107.1497 253.1063 15.23489365 21249
AIST-2T 2
1 67253U 25313F   26136.95942647  .00022828  00000-0  27575-3 0  9992
2 67253  97.0852 214.5939 0005423 311.9635  48.1161 15.60720586 21757
AIST-2T 1
1 67254U 25313G   26137.11935998  .00027770  00000-0  33450-3 0  9993
2 67254  97.0853 214.6763 0005488 291.0738  68.9933 15.60757900 21766
AIST-ST (RS86S)
1 67267U 25313V   26137.14898524  .00008477  00000-0  35867-3 0  9990
2 67267  97.3949 212.3667 0015388 117.4847 242.7956 15.23331854 21233
KOWSAR 1.5
1 67264U 25313S   26137.15248654  .00004829  00000-0  21425-3 0  9993
2 67264  97.4032 212.3537 0016549 117.1040 243.1887 15.21927185 21225
PAYA
1 67255U 25313H   26137.17077929  .00001312  00000-0  86819-4 0  9993
2 67255  97.2874 206.7311 0070546  81.1856 279.7353 15.06960984 20988
GRIFON-1
1 67281U 25313AK  26137.17615095  .00003595  00000-0  15917-3 0  9999
2 67281  97.3889 212.2247 0013640 108.2203 252.0519 15.22209522 21232
GRIFON-2
1 67272U 25313AA  26137.13808214  .00009899  00000-0  41674-3 0  9994
2 67272  97.3950 212.3770 0015840 112.7007 247.5906 15.23449779 21239
GRIFON-3
1 67280U 25313AJ  26137.18480669  .00003567  00000-0  15833-3 0  9992
2 67280  97.4006 212.4170 0014861 109.0550 251.2298 15.22112662 21233
GRIFON-4
1 67261U 25313P   26137.18991734  .00012058  00000-0  48049-3 0  9991
2 67261  97.3979 212.6800 0015499 110.6219 249.6682 15.25253153 21254
MARAFON
1 67250U 25313C   26136.97609769  .00001148  00000-0  10551-3 0  9994
2 67250  97.6167 208.8781 0154876  80.8261 281.0440 14.88010003 20712
MORSAT (RS96S)
1 67262U 25313Q   26137.15211846  .00009225  00000-0  39067-3 0  9990
2 67262  97.3948 212.3576 0015986 112.7961 247.4967 15.23269400 21236
MARAFON-EXPERIMENTAL
1 67251U 25313D   26137.17687742  .00001702  00000-0  14958-3 0  9996
2 67251  97.5696 208.8163 0150513  70.4466 291.2934 14.89498868 20787
OBZP1
1 90000U 00001A   26082.73220162  .00000000  00000-0  52294-3 0    10
2 90000  82.2945 108.6614 0025130  78.3270   5.7283 15.88315102    15
